1 37673U 11024A   12146.71685443 -.00000049 +00000-0 +00000-0 0  9990
2 37673 098.0094 153.6986 0001131 083.2771 276.8594 14.72289765051514
